[{"OBJECT_NAME":"EDISON-1","OBJECT_ID":"2025-009B","EPOCH":"2026-03-09T19:16:13.822464","MEAN_MOTION":15.29042904,"ECCENTRICITY":0.00043285,"INCLINATION":97.4042,"RA_OF_ASC_NODE":151.6286,"ARG_OF_PERICENTER":306.4185,"MEAN_ANOMALY":53.6655,"EPHEMERIS_TYPE":0,"CLASSIFICATION_TYPE":"U","NORAD_CAT_ID":62610,"ELEMENT_SET_NO":999,"REV_AT_EPOCH":6375,"BSTAR":0.00052814963,"MEAN_MOTION_DOT":0.00014835,"MEAN_MOTION_DDOT":0},{"OBJECT_NAME":"STARLINK-34827","OBJECT_ID":"2025-161Z","EPOCH":"2026-03-09T21:10:48.969408","MEAN_MOTION":15.30204668,"ECCENTRICITY":8.557e-5,"INCLINATION":53.1603,"RA_OF_ASC_NODE":292.9958,"ARG_OF_PERICENTER":129.5295,"MEAN_ANOMALY":230.5781,"EPHEMERIS_TYPE":0,"CLASSIFICATION_TYPE":"U","NORAD_CAT_ID":65038,"ELEMENT_SET_NO":999,"REV_AT_EPOCH":3426,"BSTAR":0.0008725664,"MEAN_MOTION_DOT":0.00025576,"MEAN_MOTION_DDOT":0}]
